#aV2007  9 26  0  0   .00000000      96 DD+AD WGS84 FIT  NGA
## 1446 259200.00000000   900.00000000 54369  .0000000000000
+   31     1  2  3  4  5  6  7  8  9 10 11 12 13 14 16 17 18
+         19 20 21 22 23 24 25 26 27 28 29 30 31 32  0  0  0
+          0  0  0  0  0  0  0  0  0  0  0  0  0  0  0  0  0
+          0  0  0  0  0  0  0  0  0  0  0  0  0  0  0  0  0
+          0  0  0  0  0  0  0  0  0  0  0  0  0  0  0  0  0
++         0  0  0  0  0  0  0  0  0  0  0  0  0  0  0  0  0
++         0  0  0  0  0  0  0  0  0  0  0  0  0  0  0  0  0
++         0  0  0  0  0  0  0  0  0  0  0  0  0  0  0  0  0
++         0  0  0  0  0  0  0  0  0  0  0  0  0  0  0  0  0
++         0  0  0  0  0  0  0  0  0  0  0  0  0  0  0  0  0
%c cc cc ccc ccc cccc cccc cccc cccc ccccc ccccc ccccc ccccc
%c cc cc ccc ccc cccc cccc cccc cccc ccccc ccccc ccccc ccccc
%f  0.0000000  0.000000000  0.00000000000  0.000000000000000
%f  0.0000000  0.000000000  0.00000000000  0.000000000000000
%i    0    0    0    0      0      0      0      0         0
%i    0    0    0    0      0      0      0      0         0
/*      NGA, ST. LOUIS,MO.                                  
/*   EPHEMERIS COMPUTED FROM  3 DAYS OF DATA                
/* CCCCCCCCCCCCCCCCCCCCCCCCCCCCCCCCCCCCCCCCCCCCCCCCCCCCCCCCC
/* CCCCCCCCCCCCCCCCCCCCCCCCCCCCCCCCCCCCCCCCCCCCCCCCCCCCCCCCC
*  2007  9 26  6 15   .00000000                                                 
P  1 -14307.214454   2756.949621 -21986.637980    155.132685                    
V  1  -1182.618326 -28337.900988  -2832.820188       .024134                    
P  2  23114.302494 -11657.641161  -5345.210658    139.218633                    
V  2  -3407.675442   6641.532246 -30612.594391       .027685                    
P  3 -12370.047313  12842.896919  19356.790158    120.967542                    
V  3  -6440.958805 -24529.728277  12362.333371       .053561                    
P  4  22121.131632  -2027.132520 -14891.776156     -8.491837                    
V  4 -14232.603907  12297.614687 -22567.351862      -.031592                    
P  5  -5804.587467 -17321.850869 -19585.203957    420.561138                    
V  5  23330.662492   7079.275412 -13206.515352       .317410                    
P  6  -7808.243874 -24613.521351   6334.690560    243.240890                    
V  6   2493.188135  -8221.223288 -29769.452235      -.031557                    
P  7  -9426.709657 -23647.755287   7843.901593    -81.824307                    
V  7   1864.193338  -9949.944977 -29050.493350       .219669                    
P  8  16827.614837   5202.687217  19913.344507   -124.190149                    
V  8 -21044.371189  14126.878076  13567.329304      -.013947                    
P  9  10750.145152 -20191.818210 -13946.168599     89.347719                    
V  9  14551.006358  -8531.995160  24847.274337       .017271                    
P 10  18991.190431  -4444.900985  18057.673332    -83.096036                    
V 10  20016.440572  11463.536310 -17800.291505      -.174117                    
P 11  -6887.062810  21922.485833 -13181.303258     24.136985                    
V 11 -14739.925035   9128.566248  23403.060912       .004995                    
P 12   1386.552853 -15720.890678 -21281.272052    -57.425884                    
V 12  24893.770804  11026.850542  -6432.117501      -.013012                    
P 13   5920.388288  24819.380028   7317.470621    209.276567                    
V 13  -1176.130310   9463.869853 -30679.662532       .028727                    
P 14 -13839.495071 -10559.478134 -19999.316337     43.710109                    
V 14   -810.051105 -25491.855712  13862.144187       .023256                    
P 16 -22254.823563    503.710537  14684.005188    177.773025                    
V 16 -15761.964572  -9768.098614 -23510.519150       .021578                    
P 17  14209.046231  12172.578736 -18886.650850     53.570299                    
V 17    532.973490  24005.736183  15721.324240      -.010744                    
P 18 -17195.804328 -17516.706536  10743.230557   -234.371496                    
V 18  12920.873787   3968.696395  27219.087404       .018598                    
P 19  -8273.933202  21954.909810  12400.666124     67.609764                    
V 19  -2785.541136 -15606.686708  26109.836460       .023869                    
P 20   2337.553385  17013.968208 -20371.187679    -30.187749                    
V 20 -23823.943077  -9606.016578 -10776.420203      -.006008                    
P 21  -8396.355811 -13352.119884  21505.408734     78.039945                    
V 21  22808.897662 -14579.552747   -737.083272      -.002615                    
P 22 -23940.556707 -11452.293652  -1405.780415    198.819002                    
V 22   -278.544501  -3720.723852  31390.690812       .012323                    
P 23   -262.210428  26192.577653  -3629.337062    205.012355                    
V 23  -3015.207526  -4302.406926 -31697.261905       .037613                    
P 24   4690.314364 -18564.551487  18722.354169     33.515751                    
V 24  20454.468268 -11206.516932 -16124.343611       .029882                    
P 25   2266.417199  17027.565804  20659.460343    448.102150                    
V 25 -19864.091777  15820.597807 -10906.597796       .090811                    
P 26   8892.569961 -19354.706231  15046.274341     40.839687                    
V 26   2744.633380  19975.823904  23913.867760       .131812                    
P 27   9259.595298  12330.366244  22276.307588    137.454993                    
V 27 -21002.112566  16521.129695   -636.277964       .023981                    
P 28  23152.424682  13267.421025   2236.731720     -7.553158                    
V 28  -3235.871464   1124.652872  31392.463584      -.006159                    
P 29  10981.675245 -15451.117432  18628.803332      5.793331                    
V 29   3147.730034  23141.099295  17907.812534       .001693                    
P 30 -11732.220812 -17712.232046 -16332.937356     46.943371                    
V 30  19323.487633   5990.111850 -20692.450609       .012433                    
P 31 -22673.158244   5235.313254 -12671.976384      8.256993                    
V 31  12101.432836 -11256.827210 -25826.693695      -.013350                    
P 32 -23164.082205  -4047.281617 -11741.571652     75.171585                    
V 32 -12461.710541  -9785.572255  27022.200417       .160485                    
EOF
